H1 CPF 01  gfz 2022 10 07 00  7801 terrasarx 
H2 0702601  6201 31698    2022 10 07 00 59 42 2022 10 12 00 00 42   120 1 1  0 0 0
H9
10 0 59863  55422.000000  0    -609542.239  -1629302.615   6654629.998
10 0 59863  55542.000000  0   -1325422.058  -2148454.584   6398843.489
10 0 59863  55662.000000  0   -2026821.246  -2617709.197   6030590.806
10 0 59863  55782.000000  0   -2700545.448  -3029230.451   5556308.271
10 0 59863  55902.000000  0   -3333745.893  -3376410.841   4984298.158
10 0 59863  56022.000000  0   -3914169.581  -3653981.271   4324588.135
10 0 59863  56142.000000  0   -4430400.543  -3858093.741   3588758.898
10 0 59863  56262.000000  0   -4872089.107  -3986376.128   2789743.656
10 0 59863  56382.000000  0   -5230165.279  -4037958.201   1941601.756
10 0 59863  56502.000000  0   -5497030.453  -4013467.152   1059267.579
10 0 59863  56622.000000  0   -5666721.266  -3914991.392    158281.378
10 0 59863  56742.000000  0   -5735042.186  -3746014.471   -745492.311
10 0 59863  56862.000000  0   -5699663.063  -3511320.528  -1636153.611
10 0 59863  56982.000000  0   -5560177.401  -3216872.431  -2498056.696
10 0 59863  57102.000000  0   -5318121.244  -2869667.493  -3316090.571
10 0 59863  57222.000000  0   -4976953.634  -2477574.969  -4075947.167
10 0 59863  57342.000000  0   -4541999.642  -2049159.215  -4764371.059
10 0 59863  57462.000000  0   -4020357.638  -1593493.643  -5369386.882
10 0 59863  57582.000000  0   -3420773.650  -1119969.147  -5880500.563
10 0 59863  57702.000000  0   -2753486.461   -638101.613  -6288871.033
10 0 59863  57822.000000  0   -2030047.288   -157343.027  -6587451.816
10 0 59863  57942.000000  0   -1263116.805    313100.112  -6771100.884
10 0 59863  58062.000000  0    -466245.395    764437.857  -6836658.716
10 0 59863  58182.000000  0     346361.246   1188456.879  -6782996.627
10 0 59863  58302.000000  0    1160088.088   1577665.234  -6611034.578
10 0 59863  58422.000000  0    1960168.144   1925422.275  -6323729.417
10 0 59863  58542.000000  0    2731945.325   2226050.993  -5926029.246
10 0 59863  58662.000000  0    3461139.449   2474930.500  -5424796.203
10 0 59863  58782.000000  0    4134108.071   2668567.652  -4828699.132
10 0 59863  58902.000000  0    4738104.449   2804647.526  -4148075.752
10 0 59863  59022.000000  0    5261524.581   2882060.349  -3394762.787
10 0 59863  59142.000000  0    5694136.789   2900904.308  -2581897.937
10 0 59863  59262.000000  0    6027291.911   2862464.882  -1723696.285
10 0 59863  59382.000000  0    6254105.747   2769168.377   -835201.186
10 0 59863  59502.000000  0    6369609.188   2624511.780     67982.203
10 0 59863  59622.000000  0    6370861.488   2432969.185    969968.125
10 0 59863  59742.000000  0    6257022.803   2199877.712   1854876.203
10 0 59863  59862.000000  0    6029387.043   1931307.506   2707119.886
10 0 59863  59982.000000  0    5691369.767   1633915.690   3511690.164
10 0 59863  60102.000000  0    5248453.205   1314790.293   4254427.012
10 0 59863  60222.000000  0    4708088.913    981287.279   4922272.123
10 0 59863  60342.000000  0    4079564.332    640866.195   5503498.656
10 0 59863  60462.000000  0    3373833.497    300926.314   5987916.337
10 0 59863  60582.000000  0    2603316.241    -31350.973   6367044.450
10 0 59863  60702.000000  0    1781674.266   -349150.159   6634253.533
10 0 59863  60822.000000  0     923565.514   -646158.907   6784876.486
10 0 59863  60942.000000  0      44379.591   -916692.123   6816285.548
10 0 59863  61062.000000  0    -840038.668  -1155799.707   6727934.106
10 0 59863  61182.000000  0   -1713673.876  -1359357.192   6521364.776
10 0 59863  61302.000000  0   -2560628.379  -1524136.611   6200183.042
10 0 59863  61422.000000  0   -3365409.749  -1647856.900   5769999.585
10 0 59863  61542.000000  0   -4113217.498  -1729214.981   5238340.326
10 0 59863  61662.000000  0   -4790220.794  -1767896.305   4614520.262
10 0 59863  61782.000000  0   -5383821.436  -1764563.352   3909484.692
10 0 59863  61902.000000  0   -5882895.854  -1720821.993   3135619.740
10 0 59863  62022.000000  0   -6278011.862  -1639167.195   2306536.777
10 0 59863  62142.000000  0   -6561617.588  -1522909.955   1436832.497
10 0 59863  62262.000000  0   -6728194.606  -1376085.670    541825.447
10 0 59863  62382.000000  0   -6774369.676  -1203345.967   -362721.555
10 0 59863  62502.000000  0   -6698983.786  -1009837.254  -1260888.118
10 0 59863  62622.000000  0   -6503115.985   -801069.277  -2136885.358
10 0 59863  62742.000000  0   -6190062.615   -582777.518  -2975340.116
10 0 59863  62862.000000  0   -5765273.070   -360783.216  -3761570.339
10 0 59863  62982.000000  0   -5236242.439   -140852.520  -4481844.209
10 0 59863  63102.000000  0   -4612366.011     71440.201  -5123617.251
10 0 59863  63222.000000  0   -3904760.453    270841.393  -5675745.058
10 0 59863  63342.000000  0   -3126054.572    452536.841  -6128667.598
10 0 59863  63462.000000  0   -2290156.794    612257.616  -6474562.252
10 0 59863  63582.000000  0   -1412004.743    746371.453  -6707467.589
10 0 59863  63702.000000  0    -507298.904    851958.649  -6823375.822
10 0 59863  63822.000000  0     407772.948    926871.249  -6820292.721
10 0 59863  63942.000000  0    1316816.964    969774.004  -6698269.249
10 0 59863  64062.000000  0    2203521.026    980167.668  -6459403.048
10 0 59863  64182.000000  0    3051941.867    958394.092  -6107806.047
10 0 59863  64302.000000  0    3846787.676    905622.721  -5649540.118
10 0 59863  64422.000000  0    4573691.404    823818.222  -5092522.827
10 0 59863  64542.000000  0    5219473.139    715690.390  -4446402.609
10 0 59863  64662.000000  0    5772385.873    584627.007  -3722402.121
10 0 59863  64782.000000  0    6222338.220    434610.018  -2933132.163
10 0 59863  64902.000000  0    6561090.361    270117.383  -2092378.910
10 0 59863  65022.000000  0    6782418.839     96011.915  -1214865.356
10 0 59863  65142.000000  0    6882242.357    -82580.086   -315991.101
10 0 59863  65262.000000  0    6858706.447   -260396.992    588442.236
10 0 59863  65382.000000  0    6712225.179   -432174.757   1482516.090
10 0 59863  65502.000000  0    6445476.861   -592780.466   2350483.959
10 0 59863  65622.000000  0    6063353.455   -737343.047   3177058.629
10 0 59863  65742.000000  0    5572864.105   -861377.695   3947688.396
10 0 59863  65862.000000  0    4982999.485   -960900.736   4648817.673
10 0 59863  65982.000000  0    4304556.890  -1032533.286   5268128.258
10 0 59863  66102.000000  0    3549931.925  -1073588.737   5794754.381
10 0 59863  66222.000000  0    2732883.057  -1082144.072   6219469.655
10 0 59863  66342.000000  0    1868273.741  -1057093.784   6534843.047
10 0 59863  66462.000000  0     971797.665   -998185.219   6735363.823
10 0 59863  66582.000000  0      59690.158   -906034.012   6817532.218
10 0 59863  66702.000000  0    -851566.385   -782119.786   6779915.279
10 0 59863  66822.000000  0   -1745539.004   -628762.662   6623169.504
10 0 59863  66942.000000  0   -2606138.895   -449080.064   6350029.899
10 0 59863  67062.000000  0   -3417910.023   -246924.945   5965266.217
10 0 59863  67182.000000  0   -4166308.782    -26806.268   5475605.848
10 0 59863  67302.000000  0   -4837969.654    206206.961   4889622.484
10 0 59863  67422.000000  0   -5420950.988    446596.039   4217591.424
10 0 59863  67542.000000  0   -5904956.085    688515.897   3471313.147
10 0 59863  67662.000000  0   -6281524.132    925928.660   2663908.525
10 0 59863  67782.000000  0   -6544188.164   1152744.603   1809587.698
10 0 59863  67902.000000  0   -6688594.876   1362966.601    923396.526
10 0 59863  68022.000000  0   -6712583.480   1550835.114     20944.770
10 0 59863  68142.000000  0   -6616219.255   1710969.745   -881878.010
10 0 59863  68262.000000  0   -6401781.618   1838502.916  -1769191.020
10 0 59863  68382.000000  0   -6073708.886   1929203.449  -2625409.224
10 0 59863  68502.000000  0   -5638499.682   1979587.011  -3435524.456
10 0 59863  68622.000000  0   -5104573.105   1987009.189  -4185372.341
10 0 59863  68742.000000  0   -4482093.637   1949739.785  -4861878.815
10 0 59863  68862.000000  0   -3782765.969   1867017.215  -5453282.807
10 0 59863  68982.000000  0   -3019605.898   1739082.341  -5949331.667
10 0 59863  69102.000000  0   -2206692.688   1567191.177  -6341448.865
10 0 59863  69222.000000  0   -1358905.668   1353606.507  -6622871.425
10 0 59863  69342.000000  0    -491652.458   1101568.604  -6788754.229
10 0 59863  69462.000000  0     379406.066    815246.147  -6836243.701
10 0 59863  69582.000000  0    1238630.671    499668.796  -6764522.435
10 0 59863  69702.000000  0    2070679.191    160640.558  -6574823.459
10 0 59863  69822.000000  0    2860774.379   -195364.126  -6270410.497
10 0 59863  69942.000000  0    3594962.494   -561319.814  -5856528.213
10 0 59863  70062.000000  0    4260357.320   -929784.007  -5340319.839
10 0 59863  70182.000000  0    4845367.881  -1293043.426  -4730716.208
10 0 59863  70302.000000  0    5339906.751  -1643271.387  -4038292.722
10 0 59863  70422.000000  0    5735572.761  -1972691.895  -3275095.744
10 0 59863  70542.000000  0    6025804.703  -2273747.846  -2454440.348
10 0 59863  70662.000000  0    6206001.507  -2539269.692  -1590681.620
10 0 59863  70782.000000  0    6273605.198  -2762640.012   -698963.789
10 0 59863  70902.000000  0    6228144.797  -2937950.161    205048.417
10 0 59863  71022.000000  0    6071238.713  -3060144.806   1105451.047
10 0 59863  71142.000000  0    5806555.855  -3125150.439   1986389.629
10 0 59863  71262.000000  0    5439732.845  -3129984.014   2832348.044
10 0 59863  71382.000000  0    4978252.608  -3072839.170   3628429.715
10 0 59863  71502.000000  0    4431286.426  -2953146.508   4360625.658
10 0 59863  71622.000000  0    3809506.287  -2771609.157   5016063.800
10 0 59863  71742.000000  0    3124868.474  -2530212.159   5583237.120
10 0 59863  71862.000000  0    2390375.408  -2232203.794   6052202.593
99
